      2.10          N: GNSS NAV DATA                        RINEX VERSION / TYPE
fic2rin                                 08/25/2023 00:18:00 PGM / RUN BY / DATE
                                                            END OF HEADER
2  23  8 24  2  0  0.0 -.562102999538D-03  .420641299570D-11  .000000000000D+00
     .600000000000D+02 -.590000000000D+02  .422946188835D-08 -.612486878663D+00
    -.294856727123D-05  .159625435481D-01  .630319118500D-05  .515354181099D+04
     .352800000000D+06 -.244006514549D-06  .665483919756D+00  .158324837685D-06
     .967677837998D+00  .265250000000D+03 -.135176714648D+01 -.832141804903D-08
    -.217866217860D-10  .100000000000D+01  .227600000000D+04  .000000000000D+00
     .240000000000D+01  .000000000000D+00 -.176951289177D-07  .600000000000D+02
     .345600000000D+06  .400000000000D+01
1  23  8 24  2  0  0.0  .167537014931D-03 -.125055521494D-11  .000000000000D+00
     .560000000000D+02 -.759687500000D+02  .358729228227D-08  .298110951040D+01
    -.384449958801D-05  .129023273475D-01  .636093318462D-05  .515364070129D+04
     .352800000000D+06  .838190317154D-07  .766015380987D+00 -.689178705215D-07
     .990310928871D+00  .269156250000D+03  .992821824408D+00 -.757638701550D-08
    -.103575742917D-09  .100000000000D+01  .227600000000D+04  .000000000000D+00
     .240000000000D+01  .630000000000D+02  .512227416039D-08  .560000000000D+02
     .345600000000D+06  .400000000000D+01
5  23  8 24  2  0  0.0 -.139969866723D-03 -.147792889038D-11  .000000000000D+00
     .880000000000D+02 -.339062500000D+02  .415338729097D-08 -.767390924821D+00
    -.156275928020D-05  .605991308112D-02  .802613794804D-05  .515372037697D+04
     .352800000000D+06  .223517417908D-07  .174830776767D+01  .763684511185D-07
     .967038310193D+00  .228812500000D+03  .121227701378D+01 -.797711799327D-08
     .379301513716D-09  .100000000000D+01  .227600000000D+04  .000000000000D+00
     .240000000000D+01  .000000000000D+00 -.111758708954D-07  .880000000000D+02
     .345600000000D+06  .400000000000D+01
3  23  8 24  2  0  0.0 -.172212254256D-03  .189857018995D-10  .000000000000D+00
     .960000000000D+02 -.466250000000D+02  .386051794893D-08  .178454110761D+01
    -.241398811340D-05  .510115805082D-02  .858865678310D-05  .515361462212D+04
     .352800000000D+06 -.689178705215D-07  .179605018550D+01 -.521540641785D-07
     .980027960658D+00  .222531250000D+03  .109630918476D+01 -.775818030221D-08
     .406088343781D-09  .100000000000D+01  .227600000000D+04  .000000000000D+00
     .340000000000D+01  .000000000000D+00  .186264514923D-08  .960000000000D+02
     .345600000000D+06  .400000000000D+01
7  23  8 24  2  0  0.0  .872067175806D-04 -.106865627458D-10  .000000000000D+00
     .380000000000D+02  .121875000000D+01  .487877464912D-08  .229976857832D+01
    -.894069671631D-07  .175356868422D-01  .948086380959D-05  .515372557068D+04
     .352800000000D+06 -.242143869400D-07 -.239237109378D+01 -.411644577980D-06
     .950426414584D+00  .192093750000D+03 -.217527962600D+01 -.782532595624D-08
    -.184650548579D-09  .100000000000D+01  .227600000000D+04  .000000000000D+00
     .240000000000D+01  .000000000000D+00 -.111758708954D-07  .380000000000D+02
     .345600000000D+06  .400000000000D+01
4  23  8 24  2  0  0.0  .134793110192D-03  .113686837722D-10  .000000000000D+00
     .870000000000D+02 -.231250000000D+02  .466769442821D-08 -.149627679835D+01
    -.146403908730D-05  .250898546074D-02  .704824924469D-05  .515362520981D+04
     .352800000000D+06  .149011611938D-07  .287665667239D+01 -.298023223877D-07
     .963578590859D+00  .243781250000D+03 -.303100529390D+01 -.800069040373D-08
     .235724104569D-09  .100000000000D+01  .227600000000D+04  .000000000000D+00
     .240000000000D+01  .000000000000D+00 -.419095158577D-08  .870000000000D+02
     .345600000000D+06  .400000000000D+01
6  23  8 24  2  0  0.0  .561917666346D-03 -.568434188608D-11  .000000000000D+00
     .110000000000D+03 -.594375000000D+02  .369515391799D-08 -.309017427519D+01
    -.310502946377D-05  .270274176728D-02  .629015266895D-05  .515372838211D+04
     .352800000000D+06  .931322574615D-07  .757680409619D+00 -.596046447754D-07
     .989495198435D+00  .276843750000D+03 -.786008523541D+00 -.772425031746D-08
    -.160006664920D-09  .100000000000D+01  .227600000000D+04  .000000000000D+00
     .240000000000D+01  .000000000000D+00  .372529029846D-08  .110000000000D+03
     .345600000000D+06  .400000000000D+01
31 23  8 24 11  0  0.0 -.222336500883D-03 -.568434188608D-12  .000000000000D+00
     .180000000000D+03  .825000000000D+01  .462697844651D-08 -.111974530794D+00
     .705942511559D-06  .104014399694D-01  .845082104206D-05  .515360824203D+04
     .385200000000D+06  .201165676117D-06 -.237226695378D+01  .141561031342D-06
     .954471533753D+00  .212500000000D+03  .570931510046D+00 -.810676625078D-08
    -.176435920693D-09  .100000000000D+01  .227600000000D+04  .000000000000D+00
     .340000000000D+01  .000000000000D+00 -.130385160446D-07  .180000000000D+03
     .374400000000D+06  .600000000000D+01
24 23  8 24 11  0  0.0 -.299190171063D-03 -.112549969344D-10  .000000000000D+00
     .960000000000D+02 -.125000000000D+01  .508449750402D-08  .174854650712D+01
    -.253319740295D-06  .142901621293D-01  .884570181370D-05  .515363897705D+04
     .385200000000D+06 -.456348061562D-06 -.248483719213D+01 -.150874257088D-06
     .934093254608D+00  .197687500000D+03  .912180662592D+00 -.830320300459D-08
    -.193222334200D-09  .100000000000D+01  .227600000000D+04  .000000000000D+00
     .340000000000D+01  .000000000000D+00  .232830643654D-08  .960000000000D+02
     .374400000000D+06  .600000000000D+01
21 23  8 24 11  0  0.0  .150203704834D-03 -.682121026330D-12  .000000000000D+00
     .128000000000D+03 -.498437500000D+02  .445661420730D-08 -.268894209035D+01
    -.205822288990D-05  .247295979643D-01  .463612377644D-05  .515358783340D+04
     .385200000000D+06 -.109896063805D-06  .659677592048D+00  .543892383575D-06
     .961967502585D+00  .289218750000D+03 -.716801429954D+00 -.786568478020D-08
    -.960754304987D-10  .100000000000D+01  .227600000000D+04  .000000000000D+00
     .685000000000D+01  .000000000000D+00 -.102445483208D-07  .128000000000D+03
     .374400000000D+06  .600000000000D+01
20 23  8 24 11  0  0.0  .415551941842D-03 -.204636307899D-11  .000000000000D+00
     .120000000000D+03 -.519687500000D+02  .468019494891D-08  .228578542069D+01
    -.281631946564D-05  .406657345593D-02  .841543078423D-05  .515360773849D+04
     .385200000000D+06 -.128522515297D-06  .162401070485D+01  .372529029846D-08
     .949550670860D+00  .216437500000D+03 -.286343960546D+01 -.809855162290D-08
     .578595529398D-10  .100000000000D+01  .227600000000D+04  .000000000000D+00
     .485000000000D+01  .000000000000D+00 -.838190317154D-08  .120000000000D+03
     .374400000000D+06  .600000000000D+01
